CZ-6A DEB               
1 54386U 22151DJ  22335.71767235  .00000340  00000+0  26184-3 0  9990
2 54386  98.8390 340.0773 0133140  55.6279 305.7393 13.95249156  2192
CZ-6A DEB               
1 54387U 22151DK  22335.74850646  .00008089  00000+0  14934-2 0  9990
2 54387  98.7011 341.2009 0189725 222.9107 135.7155 14.54738401  2308
CZ-6A DEB               
1 54388U 22151DL  22335.71701841  .00000626  00000+0  43366-3 0  9991
2 54388  98.7927 339.9723 0093300  42.9516 317.8885 14.00439345  2218
CZ-6A DEB               
1 54389U 22151DM  22335.91287314  .00000366  00000+0  30029-3 0  9991
2 54389  98.8132 339.9994 0128901  31.0075 329.8614 13.91579385  2225
CZ-6A DEB               
1 54390U 22151DN  22335.92077023  .00000624  00000+0  49565-3 0  9990
2 54390  98.8777 340.3627 0130011  16.1558 344.3761 13.91025755  2217
CZ-6A DEB               
1 54391U 22151DP  22335.96017220  .00001600  00000+0  41432-3 0  9998
2 54391  98.5502 340.1760 0158366 235.5680 123.0436 14.44082215  2666
CZ-6A DEB               
1 54392U 22151DQ  22335.72049144  .00000903  00000+0  34191-3 0  9992
2 54392  98.6313 339.9931 0097757 250.0893 108.9737 14.31014956  2566
CZ-6A DEB               
1 54393U 22151DR  22335.96743773  .00000444  00000+0  48106-3 0  9999
2 54393  98.4940 337.2237 0319058  48.3282 314.4713 13.57320125  2464
CZ-6A DEB               
1 54394U 22151DS  22335.80448949  .00001203  00000+0  40832-3 0  9992
2 54394  98.6406 340.2624 0112032 242.4338 116.5431 14.35104508  2583
CZ-6A DEB               
1 54395U 22151DT  22335.75267521  .00002117  00000+0  61779-3 0  9990
2 54395  98.5245 339.6503 0148666 245.6538 112.9067 14.38936418  2582
CZ-6A DEB               
1 54396U 22151DU  22335.76292437  .00006809  00000+0  13206-2 0  9999
2 54396  98.5640 340.3639 0180804 220.0820 138.6920 14.53630819  2645
CZ-6A DEB               
1 54397U 22151DV  22335.82669841  .00004714  00000+0  94304-3 0  9996
2 54397  98.5641 340.4367 0165460 187.9707 171.8855 14.53979389  2624
CZ-6A DEB               
1 54398U 22151DW  22335.74831280  .00011530  00000+0  11507-2 0  9993
2 54398  98.5384 340.7353 0256566 170.9855 189.6089 14.70204835  2634
CZ-6A DEB               
1 54399U 22151DX  22335.80839147  .00007302  00000+0  91008-3 0  9998
2 54399  98.6303 341.1999 0231327 173.6944 186.7260 14.65623093  2594
CZ-6A DEB               
1 54400U 22151DY  22335.85067116  .00001549  00000+0  38595-3 0  9994
2 54400  98.6976 341.0330 0145686 219.0832 139.9764 14.47037589  2615
CZ-6A DEB               
1 54401U 22151DZ  22335.80704841  .00003682  00000+0  17501-2 0  9996
2 54401  98.6140 339.4605 0147042 295.1982  63.4006 14.14509286  2560
CZ-6A DEB               
1 54402U 22151EA  22335.76385793  .00001259  00000+0  75802-3 0  9990
2 54402  98.6213 339.0882 0161316 317.5199  41.3576 14.02225366  2562
CZ-6A DEB               
1 54403U 22151EB  22335.74815471  .00002901  00000+0  15520-2 0  9995
2 54403  98.6302 339.3122 0147420 307.3194  51.4617 14.08512884  2539
CZ-6A DEB               
1 54404U 22151EC  22335.81304312  .00000572  00000+0  28948-3 0  9992
2 54404  98.7955 340.6667 0058954 111.3103 249.4380 14.19124648  2557
CZ-6A DEB               
1 54405U 22151ED  22335.77313329  .00001533  00000+0  31753-3 0  9992
2 54405  98.7966 341.7357 0174778 218.8248 140.0283 14.52776501  2617
CZ-6A DEB               
1 54406U 22151EE  22335.80353043  .00002040  00000+0  81065-3 0  9999
2 54406  98.6357 339.9108 0135059 273.7036  84.8708 14.24958998  2605
CZ-6A DEB               
1 54407U 22151EF  22335.83163000  .00001201  00000+0  66362-3 0  9996
2 54407  98.7619 340.2845 0048843  74.2411 286.4140 14.12685948  2504
CZ-6A DEB               
1 54408U 22151EG  22335.81204767  .00279065  00000+0  17491-1 0  9993
2 54408  98.6426 341.8287 0262116 204.9153 153.9218 14.84184841  2669
CZ-6A DEB               
1 54409U 22151EH  22335.79367549  .00001692  00000+0  87217-3 0  9993
2 54409  98.7164 339.9159 0156944 302.6833  55.9283 14.10324700  2536
CZ-6A DEB               
1 54410U 22151EJ  22335.85328413  .00000978  00000+0  34068-3 0  9991
2 54410  98.7836 341.0444 0150352 131.5551 229.8638 14.31525099  2586
CZ-6A DEB               
1 54411U 22151EK  22335.77408274  .00001027  00000+0  37575-3 0  9999
2 54411  98.7632 340.5479 0224611 113.4674 249.0286 14.21963936  2553
CZ-6A DEB               
1 54412U 22151EL  22335.83042395  .00002873  00000+0  58420-3 0  9997
2 54412  98.7472 341.5251 0165299 186.8529 173.0406 14.53658218  2676
CZ-6A DEB               
1 54413U 22151EM  22335.82309604  .00003506  00000+0  58301-3 0  9998
2 54413  98.8735 342.4658 0192294 185.0867 174.8381 14.59318332  2635
CZ-6A DEB               
1 54414U 22151EN  22335.77274418  .00000984  00000+0  75977-3 0  9992
2 54414  98.8647 340.1552 0129038  17.1125 343.4326 13.91331593  2502
CZ-6A DEB               
1 54415U 22151EP  22335.81984497  .00000293  00000+0  27567-3 0  9998
2 54415  98.9002 339.5484 0363805 339.0352  19.6195 13.62431205  2454
CZ-6A DEB               
1 54416U 22151EQ  22335.77030832  .00000340  00000+0  31672-3 0  9994
2 54416  98.8000 339.4751 0179072  32.5798 328.6258 13.81249168  2480
CZ-6A DEB               
1 54417U 22151ER  22335.76324192  .00001061  00000+0  91788-3 0  9994
2 54417  98.8745 339.9094 0173820  20.8851 339.9292 13.81761593  2481
CZ-6A DEB               
1 54418U 22151ES  22335.81516929  .00000548  00000+0  55914-3 0  9992
2 54418  98.7813 339.0102 0248195   7.6386 352.8434 13.67871554  2465
CZ-6A DEB               
1 54419U 22151ET  22335.78505954  .00009214  00000+0  10959-2 0  9993
2 54419  98.6987 341.6461 0230919 205.7316 153.2253 14.67385340  2638
CZ-6A DEB               
1 54420U 22151EU  22335.82211255  .00001294  00000+0  35085-3 0  9996
2 54420  98.8000 341.5148 0137520 166.4486 194.0456 14.44026492  2615
CZ-6A DEB               
1 54421U 22151EV  22335.78646190  .00019344  00000+0  28495-2 0  9993
2 54421  98.7209 341.6037 0202999 204.7965 154.3374 14.62325957  2600
CZ-6A DEB               
1 54422U 22151EW  22335.79254932  .00000198  00000+0  12312-3 0  9993
2 54422  98.8356 340.7657 0038954  87.2845 273.2786 14.15487403  2502
CZ-6A DEB               
1 54423U 22151EX  22335.78337050  .00105795  00000+0  44432-2 0  9992
2 54423  98.8396 343.2089 0305496 178.3398 181.8908 14.89762710  2695
CZ-6A DEB               
1 54424U 22151EY  22335.89331181  .00000167  00000+0  14152-3 0  9998
2 54424  98.9296 340.8547 0104535 358.2732   1.8056 13.98051211  2523
CZ-6A DEB               
1 54425U 22151EZ  22335.88771595  .00001488  00000+0  35166-3 0  9990
2 54425  98.9490 342.6545 0147901 183.0333 176.9977 14.49388897  2620
CZ-6A DEB               
1 54426U 22151FA  22335.85641239  .00126235  00000+0  34728-2 0  9999
2 54426  98.8431 343.4811 0341812 171.7998 188.9011 14.94534950  2757
CZ-6A DEB               
1 54427U 22151FB  22335.84779826  .00000822  00000+0  72000-3 0  9992
2 54427  98.9500 340.3974 0183493  36.4976 324.8523 13.80898363  2501
CZ-6A DEB               
1 54428U 22151FC  22335.82943785  .00000080  00000+0  14780-3 0  9995
2 54428  99.0628 339.3944 0467025   6.2100 354.4547 13.26016429  2397
CZ-6A DEB               
1 54429U 22151FD  22335.80654533  .00000175  00000+0  17524-3 0  9998
2 54429  98.9455 340.4224 0169364   7.0580 353.2904 13.83797080  2547
CZ-6A DEB               
1 54430U 22151FE  22335.84247272  .00008746  00000+0  15084-2 0  9992
2 54430  98.9257 342.7529 0186322 183.5947 176.3924 14.57953310  2674
CZ-6A DEB               
1 54431U 22151FF  22335.88629774  .00000849  00000+0  58597-3 0  9991
2 54431  98.9773 341.1430 0119205 342.5757  17.1333 13.98559814  2530
CZ-6A DEB               
1 54432U 22151FG  22335.83466697  .00002689  00000+0  17948-2 0  9998
2 54432  98.9767 340.8922 0206884 327.5088  31.3475 13.92070990  2538
CZ-6A DEB               
1 54433U 22151FH  22335.80212578  .00000118  00000+0  15830-3 0  9997
2 54433  99.1156 340.7753 0262635  15.2732 345.6152 13.63651464  2451
CZ-6A DEB               
1 54434U 22151FJ  22335.80415313  .00045582  00000+0  51174-2 0  9994
2 54434  99.0758 343.7366 0284512 242.3449 114.8608 14.61495930  2622
CZ-6A DEB               
1 54435U 22151FK  22335.83115308  .00007934  00000+0  15910-2 0  9996
2 54435  99.0809 343.3634 0213394 244.7937 113.0995 14.48592042  2663
CZ-6A DEB               
1 54436U 22151FL  22335.82886989  .00000217  00000+0  99166-4 0  9990
2 54436  98.5983 339.8187 0103714 260.5762  98.3683 14.28193104  2630
CZ-6A DEB               
1 54437U 22151FM  22335.77299688  .00003145  00000+0  96311-3 0  9990
2 54437  98.7075 340.6999 0133751 244.8891 113.8368 14.37452614  2589
CZ-6A DEB               
1 54438U 22151FN  22335.86166054  .00026883  00000+0  25797-2 0  9994
2 54438  98.8785 342.9713 0251811 179.4247 180.7296 14.72115432  2658
CZ-6A DEB               
1 54439U 22151FP  22335.85679248  .00000410  00000+0  40349-3 0  9997
2 54439  98.9090 339.9951 0205251  18.4081 342.4359 13.75159970  2502
CZ-6A DEB               
1 54440U 22151FQ  22335.84159837  .00002330  00000+0  82993-3 0  9999
2 54440  98.4971 339.3671 0100563 245.9801 113.0832 14.32412419  2622
CZ-6A DEB               
1 54441U 22151FR  22335.95310594  .00020179  00000+0  65952-2 0  9997
2 54441  98.7080 340.7729 0115782 248.5299 110.3507 14.34780765  2584
CZ-6A DEB               
1 54442U 22151FS  22335.95557248  .00000429  00000+0  30991-3 0  9999
2 54442  98.7626 339.9641 0111809  52.8934 308.2386 13.98718801  2508
CZ-6A DEB               
1 54443U 22151FT  22335.93648357  .00000898  00000+0  48295-3 0  9996
2 54443  98.8539 341.0095 0019167  54.2859 306.0094 14.15316459  2567
CZ-6A DEB               
1 54444U 22151FU  22335.88697742  .00001279  00000+0  42143-3 0  9993
2 54444  98.8218 341.3910 0144365 137.8223 223.4176 14.34167447  2557
